320P/McNaught,e,4.9088,295.9288,0.7611,3.094432,0.1810642,0.68568049,297.3243,02/06.0/2020,2000,g 20.5,4.0
# From MPC105243
321P/SOHO,e,20.0432,165.0496,172.7207,2.422990,0.2613223,0.98106116,0.0000,01/17.2509/2020,2000,g 20.0,4.0
# From MPC102103
322P/SOHO,e,11.4608,351.4751,56.9298,2.508737,0.2480398,0.97977732,0.0000,08/31.5141/2019,2000,g 19.0,4.0
# From MPEC 2016-Y36
323P/SOHO,e,5.3340,324.3752,353.0441,2.582535,0.2374842,0.98481759,0.0000,01/17.7542/2021,2000,g 20.0,4.0
# From MPC108598
324P/La Sagra,e,21.4240,270.6421,58.1800,3.094327,0.1810734,0.15445319,277.2432,02/06.0/2020,2000,g 13.0,4.0
# From MPC114609
325P/Yang-Gao,e,16.7015,257.5798,343.6771,3.524294,0.1489690,0.59383456,243.5208,02/06.0/2020,2000,g 14.0,4.0
# From MPC103849
326P/Hill,e,2.4707,99.8147,278.6024,4.065090,0.1202538,0.31706216,188.6348,02/06.0/2020,2000,g 13.5,4.0
# From MPC 97499
327P/Van Ness,e,36.2358,173.9666,185.0201,3.563327,0.1465280,0.56257449,222.2903,02/06.0/2020,2000,g 16.0,4.0
# From MPC109148
328P/LONEOS-Tucker,e,17.6638,341.6118,30.4952,4.196900,0.1146334,0.55131473,172.5373,02/06.0/2020,2000,g 14.5,4.0
# From MPC101101
329P/LINEAR-Catalina,e,21.6637,87.6853,343.5778,5.193990,0.0832631,0.67682340,127.2531,02/06.0/2020,2000,g 13.5,4.0
# From MPC105243
330P/Catalina,e,15.6937,293.0972,189.0126,6.634516,0.0576753,0.54930661,72.4604,02/06.0/2020,2000,g 12.0,4.0
# From MPC110497
331P/Gibbs,e,9.7403,216.7783,183.6798,3.002914,0.1894042,0.04050011,315.2409,02/06.0/2020,2000,g 12.0,4.0
# From MPEC 2016-K18
332P/Ikeya-Murakami,e,9.3817,3.7946,152.3891,3.087585,0.1816668,0.48948334,258.3604,02/06.0/2020,2000,g 18.0,4.0
# From MPEC 2016-EI8
332P-B/Ikeya-Murakami,e,9.3805,3.8028,152.3711,3.082329,0.1821317,0.48970701,359.9699,03/17.0/2016,2000,g 19.0,4.0
# From MPEC 2016-K18
332P-C/Ikeya-Murakami,e,9.3808,3.7951,152.3804,3.087551,0.1816698,0.48948872,258.3729,02/06.0/2020,2000,g 16.5,4.0
# From MPEC 2016-ED0
332P-D/Ikeya-Murakami,e,9.3761,3.7923,152.4393,3.081138,0.1822373,0.48977814,359.9486,03/17.0/2016,2000,g 19.0,4.0
# From MPEC 2016-ED0
332P-E/Ikeya-Murakami,e,9.3774,3.8228,152.2825,3.079877,0.1823493,0.48922008,359.9889,03/17.0/2016,2000,g 21.0,4.0
# From MPEC 2016-ED0
332P-F/Ikeya-Murakami,e,9.5293,3.4757,152.8203,3.163214,0.1751908,0.49918860,359.8501,03/17.0/2016,2000,g 21.0,4.0
# From MPEC 2016-ED0
332P-G/Ikeya-Murakami,e,9.2523,3.6955,154.4000,3.050519,0.1849880,0.49200362,359.9006,03/19.0/2016,2000,g 19.0,4.0
# From MPC100285
332P-H/Ikeya-Murakami,e,9.3813,3.7948,152.3811,3.087735,0.1816536,0.48952389,258.3169,02/06.0/2020,2000,g 19.0,4.0
# From MPEC 2016-ED0
332P-I/Ikeya-Murakami,e,9.3791,3.8048,152.3297,3.081767,0.1821815,0.48955490,359.9360,03/17.0/2016,2000,g 20.5,2.0
# From MPEC 2016-EI8
332P-J/Ikeya-Murakami,e,9.4296,3.6729,152.7712,3.115165,0.1792596,0.49429435,359.8613,03/17.0/2016,2000,g 20.5,2.0
# From MPC104796
333P/LINEAR,e,131.9652,115.6173,26.0806,4.220874,0.1136581,0.73602804,159.6822,02/06.0/2020,2000,g 15.0,4.0
# From MPC111774
334P/NEAT,e,20.5657,90.7706,89.4466,6.836926,0.0551331,0.35747049,53.5067,02/06.0/2020,2000,g 10.5,4.0
# From MPC100285
335P/Gibbs,e,7.2900,330.8420,162.2435,3.579060,0.1455629,0.54495083,226.2546,02/06.0/2020,2000,g 17.0,4.0
# From MPC105244
336P/McNaught,e,17.8340,298.2302,308.6882,5.028792,0.0873994,0.44588246,95.9377,02/06.0/2020,2000,g 13.5,4.0
# From MPC112394
337P/WISE,e,15.3736,106.0721,160.9647,3.287981,0.1653142,0.49694328,215.2187,02/06.0/2020,2000,g 17.0,4.0
# From MPC104796
338P/McNaught,e,25.3635,9.7876,4.4094,3.899223,0.1280080,0.41072828,149.8994,02/06.0/2020,2000,g 12.0,4.0
# From MPC101101
339P/Gibbs,e,5.7373,172.7578,27.5198,3.694930,0.1387697,0.63614644,179.3532,02/06.0/2020,2000,g 17.0,4.0
# From MPC102957
340P/Boattini,e,2.0796,291.7282,35.7729,4.251992,0.1124127,0.28039490,131.9577,02/06.0/2020,2000,g 13.0,4.0
# From MPC109148
341P/Gibbs,e,3.7940,30.0129,312.0915,4.295471,0.1107103,0.41478266,149.4058,02/06.0/2020,2000,g 12.5,4.0
# From MPC101101
342P/SOHO,e,12.5721,40.7275,60.6443,3.042299,0.1857382,0.98325898,0.0000,10/19.4262/2021,2000,g  9.0,4.0
# From MPC109148
343P/NEAT-LONEOS,e,5.5829,257.2460,137.3947,5.463878,0.0771707,0.58348158,85.2300,02/06.0/2020,2000,g 14.0,4.0
# From MPC109148
344P/Read,e,3.4902,273.1930,140.4509,4.869352,0.0917270,0.42126584,109.3868,02/06.0/2020,2000,g 13.0,4.0
# From MPC109148
345P/LINEAR,e,2.7260,154.4970,196.3506,4.041463,0.1213099,0.22024706,157.7247,02/06.0/2020,2000,g 12.0,4.0
# From MPC110086
346P/Catalina,e,22.1856,102.4680,336.0447,4.477159,0.1040400,0.50246307,113.0404,02/06.0/2020,2000,g 14.0,4.0
# From MPC108599
347P/PANSTARRS,e,11.7475,261.0496,98.2892,3.608044,0.1438124,0.38505532,178.6758,02/06.0/2020,2000,g 15.0,4.0
# From MPC104796
348P/PANSTARRS,e,17.7133,312.9485,135.1142,3.159115,0.1755318,0.30561070,230.6962,02/06.0/2020,2000,g 14.0,4.0
# From MPC112394
349P/Lemmon,e,5.4915,331.7560,256.0264,3.571204,0.1460434,0.29969835,130.5029,02/06.0/2020,2000,g 14.0,4.0
# From MPC111775
350P/McNaught,e,7.3580,65.4323,141.6463,4.102121,0.1186292,0.09048710,91.7353,02/06.0/2020,2000,g 14.0,4.0
# From MPC105244
351P/Wiegert-PANSTARRS,e,12.7907,283.4494,352.5874,4.436511,0.1054731,0.29621528,162.4955,02/06.0/2020,2000,g 12.5,4.0
# From MPC110086
352P/Skiff,e,21.0102,28.1233,309.1006,6.633266,0.0576916,0.61795609,55.3306,02/06.0/2020,2000,g 11.5,4.0
# From MPEC 2020-AA5
353P/McNaught,e,28.4227,121.5617,230.3778,4.171761,0.1156711,0.46964502,89.8626,02/06.0/2020,2000,g 14.5,4.0
# From MPC105545
354P/LINEAR,e,5.2553,320.1316,133.0919,2.289999,0.2844141,0.12564249,336.7972,02/06.0/2020,2000,g 15.5,4.0
# From MPEC 2020-AA5
355P/LINEAR-NEAT,e,11.0337,51.4486,336.2611,3.473466,0.1522508,0.50655357,128.8629,02/06.0/2020,2000,g 15.5,2.0
# From MPC109148
356P/WISE,e,9.6327,160.7890,226.0662,4.162036,0.1160768,0.35434938,90.6738,02/06.0/2020,2000,g 14.0,4.0
# From MPC114609
357P/Hill,e,6.3088,44.5933,1.4579,4.463504,0.1045178,0.43429936,64.6161,02/06.0/2020,2000,g 15.5,4.0
# From MPC106350
358P/PANSTARRS,e,11.0571,85.7187,299.7740,3.149367,0.1763475,0.23784337,117.3865,02/06.0/2020,2000,g 18.0,4.0
# From MPC110086
359P/LONEOS,e,10.2632,149.7643,200.1173,4.639542,0.0986260,0.32366848,88.6956,02/06.0/2020,2000,g 13.5,4.0
# From MPC108599
360P/WISE,e,24.0882,2.2013,354.1123,3.703643,0.1382804,0.49831043,124.6442,02/06.0/2020,2000,g 19.5,6.0
# From MPC114609
361P/Spacewatch,e,13.8840,203.2610,219.1500,4.942635,0.0896946,0.43772645,52.3614,02/06.0/2020,2000,g 12.0,4.0
# From MPEC 2017-V13
362P/,e,15.5619,192.5999,53.6438,3.966702,0.1247555,0.28015941,157.3080,02/06.0/2020,2000,g 12.9,2.0
# From MPC114609
363P/Lemmon,e,4.0453,165.8559,320.0015,3.431997,0.1550186,0.56101959,105.4206,02/06.0/2020,2000,g 17.5,4.0
# From MPC114609
364P/PANSTARRS,e,12.1503,46.2179,211.9653,2.878481,0.2018176,0.72259095,119.4009,02/06.0/2020,2000,g 17.0,2.0
# From MPC111775
365P/PANSTARRS,e,9.8398,87.4336,66.2405,3.181375,0.1736928,0.57452333,125.9270,02/06.0/2020,2000,g 17.0,4.0
# From MPC114610
366P/Spacewatch,e,8.8595,70.7534,153.1770,3.495641,0.1508043,0.34865707,85.1610,02/06.0/2020,2000,g 15.0,4.0
# From MPC112395
367P/Catalina,e,8.4638,58.7143,172.9252,3.505002,0.1502006,0.28071880,89.2930,02/06.0/2020,2000,g 17.5,2.0
# From MPC114610
368P/NEAT,e,15.4842,257.9744,118.7859,5.526764,0.0758573,0.62599491,38.6665,02/06.0/2020,2000,g 14.0,4.0
# From MPC114610
369P/Hill,e,10.3088,47.3114,13.2403,4.387670,0.1072391,0.55411026,51.3613,02/06.0/2020,2000,g 15.0,4.0
# From MPC114610
370P/NEAT,e,19.3977,55.1511,356.7269,6.439463,0.0603156,0.61427733,36.5896,02/06.0/2020,2000,g 13.0,4.0
# From MPC114610
371P/LINEAR-Skiff,e,17.3784,67.3308,308.4615,4.181810,0.1152544,0.47620220,56.4057,02/06.0/2020,2000,g 16.0,4.0
# From MPEC 2019-TG9
372P/McNaught,e,9.5094,325.8272,27.0634,4.501180,0.1032083,0.15235793,48.8971,02/06.0/2020,2000,g 13.5,4.0
# From MPC114610
373P/Rinner,e,13.7577,231.9535,221.1828,3.806348,0.1327215,0.39226882,40.2094,02/06.0/2020,2000,g 14.5,4.0
# From MPC114610
374P/Larson,e,10.7585,7.9213,51.5679,4.976708,0.0887750,0.46227430,34.7331,02/06.0/2020,2000,g 14.0,4.0
# From MPC114610
375P/Hill,e,17.3636,359.9573,119.4517,5.560670,0.0751646,0.65907215,30.9364,02/06.0/2020,2000,g 16.0,4.0
# From MPC114610
376P/LONEOS,e,1.1927,314.8563,285.4116,5.870560,0.0692923,0.51782563,8.9966,02/06.0/2020,2000,g 12.5,4.0
# From MPC115888
377P/Scotti,e,9.0217,226.0598,354.9215,6.714720,0.0566451,0.25286297,351.1741,02/06.0/2020,2000,g  9.5,4.0
# From MPEC 2019-TG9
378P/McNaught,e,19.1102,94.5143,194.2112,6.355783,0.0615107,0.46818413,344.0807,02/06.0/2020,2000,g 12.0,4.0
# From MPC115889
379P/Spacewatch,e,12.3838,184.0033,31.2403,3.527976,0.1487359,0.33857952,28.0186,02/06.0/2020,2000,g 15.0,4.0
# From MPEC 2019-TG9
380P/PANSTARRS,e,8.2387,133.0448,90.1273,4.541351,0.1018419,0.32856820,24.8465,02/06.0/2020,2000,g 12.5,4.0
# From MPEC 2019-TG9
381P/LINEAR-Spacewatch,e,28.3766,173.7915,173.0992,7.112913,0.0519557,0.68150150,6.8636,02/06.0/2020,2000,g 17.5,2.0
# From MPC115889
382P/Larson,e,7.6598,178.2685,174.5605,6.172779,0.0642662,0.29464422,307.9183,02/06.0/2020,2000,g  8.0,4.0
# From MPC118844
383P/Christensen,e,12.3223,207.8982,133.6202,3.543091,0.1477851,0.59943610,15.1909,02/06.0/2020,2000,g 18.0,4.0
# From MPEC 2020-AA5
384P/Kowalski,e,7.2811,354.2298,37.6496,2.901882,0.1993813,0.61529785,23.4448,02/06.0/2020,2000,g 19.5,4.0
# From MPEC 2020-AA5
385P/Hill,e,16.8260,357.0770,44.3301,4.287504,0.1110190,0.40114502,16.0105,02/06.0/2020,2000,g 13.0,4.0
# From MPC119999
386P/PANSTARRS,e,15.2286,134.9500,353.2733,4.058442,0.1205494,0.41648370,336.4404,02/06.0/2020,2000,g 14.5,4.0
# From MPEC 2020-AA5
387P/Boattini,e,8.9170,259.3396,162.8010,4.802361,0.0936531,0.73600354,14.3126,02/06.0/2020,2000,g 15.0,4.0
# From MPEC 2020-AA5
388P/Gibbs,e,23.8586,37.0544,42.4164,5.249050,0.0819564,0.61804243,16.1773,02/06.0/2020,2000,g 13.0,4.0
# From MPC118845
389P/Siding Spring,e,160.0687,218.8388,249.2977,5.628813,0.0738038,0.70449674,2.8575,02/06.0/2020,2000,g 16.0,4.0
